{"type":"FeatureCollection","name":"karaikudi_constituency_outline","license":"ODbL-1.0 (OpenStreetMap)","sources":["OSM relation 10308040 -- Karaikudi (Karaikkudi) admin boundary"],"notes":"Constituency-level outline for Karaikudi, Sivaganga District. Fetched from OSM.","features":[{"type":"Feature","properties":{"name":"Karaikudi Constituency","nameTa":"காரைக்குடி தொகுதி","source":"OSM relation 10308040","admin_level":"6","scope":"constituency_outline"},"geometry":{"type":"MultiPolygon","coordinates":[[[[78.700819,9.9088254],[78.7001538,9.9112562],[78.6997676,9.9139829],[78.699553,9.9162869],[78.7004113,9.9184006],[78.7025142,9.9185485],[78.704381,9.9186542],[78.705132,9.9196054],[78.7052822,9.9205565],[78.7054539,9.9218036],[78.7063122,9.922797],[78.7069773,9.9237271],[78.7079859,9.9253334],[78.7103677,9.9284193],[78.7120414,9.9307232],[78.7125134,9.9321182],[78.7129426,9.9337457],[78.7144017,9.9346545],[78.7166548,9.9338725],[78.7170625,9.9327523],[78.7166333,9.9307021],[78.71629,9.9295396],[78.7160969,9.9286096],[78.7156677,9.92806],[78.71526,9.9277218],[78.7150025,9.9263268],[78.7147236,9.9246148],[78.7146807,9.9231986],[78.7155175,9.9225011],[78.7165689,9.9221841],[78.7198519,9.9211272],[78.7215686,9.9210216],[78.7229633,9.9217191],[78.723371,9.922797],[78.7235212,9.9241921],[78.724122,9.9251643],[78.7255168,9.9257139],[78.7262893,9.9266228],[78.7268257,9.9278909],[78.7266111,9.9292648],[78.7257314,9.9314841],[78.7266969,9.9333652],[78.7272119,9.9342952],[78.7288213,9.9342318],[78.7299371,9.9335977],[78.7305593,9.9331116],[78.7313962,9.9338513],[78.7315035,9.9350772],[78.7314605,9.9365356],[78.7319112,9.9377615],[78.7341857,9.9412911],[78.7358379,9.9431299],[78.7372327,9.9447996],[78.7389278,9.9446094],[78.7400222,9.944398],[78.7405371,9.9446305],[78.7433052,9.9458141],[78.7458372,9.9447996],[78.7467813,9.9428974],[78.7487554,9.9428552],[78.74897,9.9441233],[78.7486267,9.9463636],[78.7472963,9.9483503],[78.7460947,9.9484349],[78.7447214,9.9474626],[78.7437343,9.9473358],[78.7423181,9.9473781],[78.7415885,9.9477585],[78.741846,9.9490266],[78.7409019,9.9502525],[78.7397432,9.9516896],[78.7388849,9.9529577],[78.7380266,9.9541413],[78.7390995,9.9538454],[78.7405157,9.9535918],[78.7428331,9.9542258],[78.744893,9.9552825],[78.7466955,9.9565506],[78.7481546,9.9579877],[78.7493562,9.9594672],[78.7515449,9.9601857],[78.7530899,9.9612424],[78.7521028,9.9625105],[78.7500858,9.9628064],[78.7487554,9.9626796],[78.7472963,9.9634826],[78.7467384,9.965596],[78.7466955,9.96716],[78.7477254,9.967963],[78.75,9.9672868],[78.7521457,9.9661033],[78.7541627,9.9650043],[78.7561798,9.9640321],[78.7580251,9.9644548],[78.7588834,9.9658497],[78.7597417,9.9678785],[78.7604284,9.9700764],[78.7612438,9.9721475],[78.7640333,9.9788256],[78.7645483,9.9835171],[78.7642479,9.9866025],[78.7650203,9.9900259],[78.7680673,9.993872],[78.7704706,9.9966192],[78.7703418,9.9994931],[78.7691402,10.002367],[78.7664365,10.0054522],[78.7658786,10.0084951],[78.7665224,10.0110731],[78.7678957,10.0135242],[78.7686681,10.0163135],[78.7680244,10.0294142],[78.7704706,10.0311468],[78.7745046,10.0312314],[78.7778949,10.0311468],[78.7807273,10.0308933],[78.7830448,10.0304707],[78.7851476,10.0288648],[78.7865638,10.0278083],[78.7872076,10.0269631],[78.7886238,10.0277661],[78.789525,10.029372],[78.790555,10.030682],[78.7922716,10.0353305],[78.7945461,10.0372321],[78.7966489,10.0371054],[78.7982797,10.0373166],[78.7993526,10.0392183],[78.7995672,10.0410354],[78.798151,10.0422186],[78.796134,10.0427257],[78.7942457,10.042937],[78.7932586,10.0435286],[78.793087,10.0449231],[78.7934732,10.0459795],[78.7974643,10.0452611],[78.8078498,10.0458528],[78.8080644,10.0476276],[78.806777,10.0491488],[78.806734,10.0505433],[78.8073349,10.0522336],[78.8081932,10.0530787],[78.8103389,10.0514307],[78.8127851,10.0502052],[78.8148021,10.0491066],[78.817377,10.0480501],[78.8201665,10.047205],[78.8230419,10.0474585],[78.8290929,10.0499517],[78.8327837,10.0484727],[78.8347578,10.0477121],[78.8355732,10.0475008],[78.8408947,10.0519378],[78.8426113,10.0567127],[78.8439846,10.0584452],[78.8479757,10.0614454],[78.8514947,10.0612763],[78.8540268,10.0601354],[78.8565158,10.058572],[78.8578462,10.0575578],[78.8590049,10.0559521],[78.8584899,10.0545577],[78.8580179,10.0526139],[78.8578462,10.0513462],[78.8571596,10.0499517],[78.8560867,10.0496981],[78.8547563,10.0497827],[78.8538551,10.0491488],[78.8535976,10.0480079],[78.853898,10.0463598],[78.8547992,10.0446273],[78.8557863,10.0430215],[78.8568162,10.0410776],[78.85746,10.0387957],[78.8575029,10.0371476],[78.8582325,10.031823],[78.8585758,10.0288226],[78.859477,10.0261179],[78.8603782,10.023202],[78.8623523,10.013482],[78.8627815,10.0105236],[78.8622665,10.0080724],[78.8637685,10.0060861],[78.8640689,10.0042266],[78.8644123,10.0021134],[78.8647127,10.0001693],[78.8648414,9.9987323],[78.8659572,9.9982674],[78.869133,9.9982252],[78.8747549,9.9967459],[78.8779735,9.9996621],[78.8804197,10.0017753],[78.8817071,10.0030432],[78.8833379,10.0053676],[78.8840675,10.0063819],[78.8854408,10.0080724],[78.8856983,10.0086641],[78.885355,10.0108195],[78.8840246,10.0158486],[78.8824796,10.0177926],[78.8813209,10.0192718],[78.8805055,10.0199902],[78.880248,10.02223],[78.8805913,10.0226949],[78.8831234,10.0216384],[78.8852262,10.0204128],[78.8875007,10.0198212],[78.890376,10.0199902],[78.893466,10.0200747],[78.8998174,10.0203705],[78.9024782,10.0193563],[78.9043665,10.0185956],[78.9067697,10.0185956],[78.908658,10.0192718],[78.9093875,10.0200325],[78.9092159,10.0218074],[78.9084863,10.0232865],[78.9080143,10.0257799],[78.9083576,10.0302171],[78.9105463,10.02971],[78.9129924,10.029541],[78.915224,10.0297523],[78.9168548,10.0294565],[78.9186573,10.0281887],[78.9198589,10.0288226],[78.9202022,10.0302594],[78.920803,10.0333443],[78.9226484,10.0336401],[78.9250087,10.0333866],[78.9285924,10.033261],[78.700819,9.9088254]]],[[[78.9274157,10.0457659],[78.9265187,10.0443898],[78.9215335,10.0443968],[78.9190257,10.0397843],[78.9251901,10.0381755],[78.9285795,10.0352724],[78.9285924,10.033261],[78.9274157,10.0457659]]],[[[78.9380196,10.0506857],[78.9342413,10.0538336],[78.930463,10.0504404],[78.9274157,10.0457659],[78.9380196,10.0506857]]],[[[78.9706123,10.0797517],[78.9640522,10.0858835],[78.9589038,10.0927509],[78.956039,10.0926691],[78.9542952,10.0906252],[78.9483241,10.0879034],[78.9472348,10.0825625],[78.9426219,10.0740762],[78.9352511,10.0708162],[78.9334454,10.0690715],[78.9355284,10.0675697],[78.9358573,10.064125],[78.9361512,10.0610696],[78.9383517,10.0581262],[78.9422961,10.0564501],[78.9407598,10.0529342],[78.9380196,10.0506857],[78.9706123,10.0797517]]],[[[78.976002,10.0854054],[78.9751794,10.0855564],[78.9746812,10.0824497],[78.9706123,10.0797517],[78.976002,10.0854054]]],[[[78.9858698,10.0884638],[78.9827299,10.0873891],[78.9800787,10.0846571],[78.976002,10.0854054],[78.9858698,10.0884638]]],[[[78.9272644,10.1230952],[78.9287209,10.1231111],[78.9286565,10.1164572],[78.9300728,10.1174711],[78.9310598,10.1159924],[78.9319825,10.118316],[78.9369178,10.1177879],[78.9372825,10.113373],[78.9383983,10.1127816],[78.9402222,10.1121689],[78.9409518,10.1129716],[78.9405655,10.1154644],[78.9442777,10.1136476],[78.9463805,10.1116831],[78.9471102,10.1110282],[78.9462518,10.1085566],[78.9471342,10.1078967],[78.9483762,10.1085566],[78.9495562,10.1163516],[78.957045,10.1153798],[78.9659499,10.1197947],[78.9660644,10.1251098],[78.969469,10.123259],[78.9731597,10.1166684],[78.9738463,10.1106691],[78.9768331,10.1074628],[78.9783095,10.1006982],[78.9817854,10.0971581],[78.9807638,10.0951625],[78.9858698,10.0884638],[78.9272644,10.1230952]]],[[[78.9065551,10.1536756],[78.9051388,10.1499159],[78.907585,10.1471701],[78.9088725,10.1477615],[78.9107179,10.1451846],[78.9116191,10.1431991],[78.9108037,10.140242],[78.9104382,10.1400261],[78.9095162,10.1394816],[78.9095162,10.1368624],[78.9080141,10.135426],[78.9086991,10.1333446],[78.9090013,10.1324265],[78.9100313,10.1322153],[78.913207,10.1278639],[78.9185285,10.1244842],[78.9220047,10.123597],[78.9247386,10.1216913],[78.9272644,10.1230952],[78.9065551,10.1536756]]],[[[78.8993453,10.1570128],[78.9065551,10.1536756],[78.8993453,10.1570128]]],[[[78.8795614,10.1517113],[78.8809347,10.1520281],[78.8829146,10.1534471],[78.8872154,10.1493146],[78.8914918,10.1488176],[78.8951485,10.1475849],[78.8987874,10.1503384],[78.9002895,10.1519859],[78.9001607,10.1540557],[78.8985729,10.155661],[78.8993453,10.1570128],[78.8795614,10.1517113]]],[[[78.8729489,10.1412605],[78.875691,10.1442411],[78.8759136,10.146452],[78.8765144,10.1479727],[78.8780164,10.1480572],[78.8795614,10.1517113],[78.8729489,10.1412605]]],[[[78.6908626,10.145438],[78.6917209,10.1462407],[78.6915063,10.1474658],[78.6918234,10.1480746],[78.6941242,10.1524927],[78.6951542,10.1545204],[78.697257,10.1586814],[78.7012481,10.1636766],[78.7040483,10.1696008],[78.7062692,10.1723677],[78.7070417,10.173487],[78.7080981,10.1750768],[78.7095737,10.1740361],[78.7118482,10.1723888],[78.7158823,10.169981],[78.7177705,10.1691363],[78.7255585,10.1681531],[78.7263965,10.1671086],[78.7293577,10.1662638],[78.730216,10.1653767],[78.7294864,10.1625888],[78.7291176,10.1598298],[78.7290573,10.1593783],[78.7296603,10.1592992],[78.7298904,10.159269],[78.7303447,10.1592094],[78.7308922,10.1589499],[78.7316751,10.1583223],[78.7348508,10.1584068],[78.7369108,10.157393],[78.738842,10.1573929],[78.7403011,10.1585335],[78.740816,10.1598008],[78.7429618,10.1605611],[78.7447078,10.161527],[78.7487554,10.1620819],[78.7518024,10.1644052],[78.7551069,10.1647431],[78.7582826,10.1634337],[78.7602996,10.1631802],[78.76163,10.1638983],[78.767974,10.1616309],[78.7696552,10.1628845],[78.7711572,10.1650388],[78.7714147,10.1667707],[78.7706422,10.1695586],[78.7687539,10.1709103],[78.7672948,10.1722621],[78.7664365,10.1755569],[78.7675523,10.1776266],[78.7672519,10.1789782],[78.7655782,10.1792317],[78.7652778,10.1886933],[78.7652866,10.1890805],[78.7653637,10.1924525],[78.7669944,10.1940575],[78.767979,10.1959736],[78.7680105,10.1960348],[78.7688827,10.1977322],[78.7733888,10.198408],[78.7761524,10.1993839],[78.7771224,10.2015336],[78.779912,10.2022516],[78.7824869,10.2024628],[78.7820577,10.2036031],[78.7863922,10.2043634],[78.7874221,10.2055883],[78.7940311,10.2055038],[78.798623,10.2076156],[78.8019704,10.2098541],[78.8070774,10.2112056],[78.8095665,10.2114591],[78.8136433,10.2079535],[78.8176345,10.2029274],[78.8226127,10.1969298],[78.8228702,10.1938886],[78.8223552,10.192537],[78.8221835,10.1870882],[78.8207674,10.1839203],[78.820695,10.1823051],[78.8206386,10.181048],[78.8193512,10.1796963],[78.8187933,10.1772464],[78.8181495,10.1750922],[78.818076,10.1714537],[78.815875,10.1674466],[78.8133859,10.1660949],[78.8162612,10.162631],[78.8186645,10.1611103],[78.8184928,10.1588292],[78.8238572,10.1555343],[78.8298225,10.1532531],[78.8308724,10.148992],[78.830595,10.1464096],[78.8324403,10.1441284],[78.8325967,10.1393345],[78.8348436,10.1400941],[78.8360452,10.1401997],[78.8374185,10.1389323],[78.839736,10.1384042],[78.8414526,10.1387634],[78.8433837,10.1392492],[78.8470743,10.1377495],[78.8479543,10.1371369],[78.8492846,10.1346444],[78.8492202,10.131983],[78.8482976,10.1292158],[78.8478952,10.1269345],[78.8477772,10.1260632],[78.8509832,10.1258152],[78.8515851,10.1257687],[78.8518595,10.1263641],[78.8542843,10.1258149],[78.8570738,10.1256038],[78.8587566,10.1260604],[78.8624596,10.1269767],[78.8626977,10.1280924],[78.8629961,10.1294904],[78.8640658,10.1310288],[78.8643109,10.1314229],[78.864541,10.1317928],[78.8649329,10.1336117],[78.865292,10.1352781],[78.8672662,10.1359329],[78.8697338,10.136461],[78.8719225,10.1393126],[78.8726061,10.1399702],[78.8729489,10.1412605],[78.6908626,10.145438]]],[[[78.6272621,10.0166938],[78.6312532,10.0158909],[78.6355447,10.0152992],[78.6394071,10.0144117],[78.6401367,10.012848],[78.6407804,10.0116225],[78.6418104,10.0102701],[78.6427974,10.0097207],[78.6449003,10.0099742],[78.6489772,10.010101],[78.6546421,10.0096784],[78.6564445,10.0088754],[78.6596632,10.0080302],[78.6619806,10.007523],[78.6636543,10.0077766],[78.6660575,10.0085796],[78.667345,10.00896],[78.6690616,10.0093403],[78.6708211,10.0102278],[78.6718511,10.0108617],[78.6742973,10.0104391],[78.6775159,10.0103969],[78.679533,10.0104391],[78.6809921,10.0103969],[78.682537,10.0116647],[78.6830949,10.0129748],[78.6831379,10.0138623],[78.6812925,10.0145808],[78.6800479,10.0151724],[78.6791467,10.0161022],[78.6782455,10.0177081],[78.6786317,10.0206241],[78.6796617,10.0225258],[78.6809492,10.0231597],[78.6820221,10.0235401],[78.6828804,10.0239627],[78.6862707,10.0270477],[78.6854553,10.0315272],[78.6874723,10.0336401],[78.6897039,10.0346543],[78.6910772,10.0364715],[78.6924505,10.0389647],[78.6938238,10.041965],[78.6936521,10.0443315],[78.69318,10.0456837],[78.6939525,10.047205],[78.6953258,10.0488108],[78.6955833,10.0517265],[78.6984586,10.0565859],[78.7009048,10.0619102],[78.7043809,10.0615721],[78.7166118,10.0622482],[78.7189292,10.0624172],[78.7185001,10.0644877],[78.7168264,10.067023],[78.7152814,10.0700231],[78.7135219,10.0709949],[78.7111187,10.0711639],[78.7082004,10.0720935],[78.7061834,10.0719668],[78.7040805,10.0710794],[78.7021493,10.0707836],[78.7003898,10.0713329],[78.6995315,10.0728541],[78.7002611,10.075178],[78.7018489,10.0767837],[78.7047672,10.0797836],[78.7067413,10.0821921],[78.7080288,10.0840512],[78.7091445,10.0868821],[78.7102174,10.091741],[78.7108612,10.0949944],[78.7111616,10.0976139],[78.7121915,10.0992617],[78.7141656,10.0998109],[78.7162256,10.1002757],[78.7182855,10.1013319],[78.7204742,10.1058527],[78.7193584,10.1090214],[78.7187576,10.1115563],[78.7182855,10.1138377],[78.7176847,10.1170063],[78.718028,10.1212734],[78.717513,10.1239349],[78.7154102,10.1258783],[78.713479,10.1272725],[78.7115049,10.1287511],[78.7103033,10.1303565],[78.710432,10.1332292],[78.710452,10.1370686],[78.7104749,10.141467],[78.7080717,10.1434525],[78.7051105,10.144044],[78.7034797,10.1442552],[78.7009048,10.1450578],[78.6966562,10.1444242],[78.6950683,10.143706],[78.6936521,10.1429456],[78.6923646,10.1429878],[78.6912059,10.143875],[78.6908626,10.145438],[78.6272621,10.0166938]]],[[[78.6272621,10.0166938],[78.6221981,10.0080302],[78.6190223,10.0025783],[78.616662,9.999155],[78.6149025,9.9962388],[78.6129283,9.9937875],[78.6118125,9.9894765],[78.6107826,9.9888848],[78.6106109,9.9907022],[78.6100101,9.9933226],[78.6092805,9.9961543],[78.6088943,9.9982674],[78.6084222,10.0013104],[78.6092376,10.005579],[78.6103963,10.008157],[78.6085081,10.0093403],[78.6063623,10.0095094],[78.603959,10.0093826],[78.601427,10.0095094],[78.5994958,10.010101],[78.5979938,10.0107772],[78.5959768,10.011707],[78.5956764,10.0092558],[78.5955905,10.0071849],[78.5957193,10.0044379],[78.5959339,10.0014795],[78.5959339,9.9984788],[78.5956764,9.9961965],[78.5951185,9.9951822],[78.5936164,9.994675],[78.5928011,9.9938297],[78.5920715,9.9912516],[78.5912561,9.9892652],[78.5911274,9.9845737],[78.5905265,9.9828409],[78.5914707,9.9820801],[78.5934877,9.9819533],[78.5955905,9.9824182],[78.5979938,9.9827563],[78.6005258,9.9832213],[78.6027574,9.983813],[78.6043453,9.9843624],[78.6052894,9.9845737],[78.6052036,9.9830099],[78.6043882,9.9816574],[78.6036586,9.9803472],[78.6038732,9.9786565],[78.6047315,9.977769],[78.6064481,9.977769],[78.6093664,9.9784452],[78.6113834,9.9787411],[78.6139154,9.9788256],[78.6155891,9.9780648],[78.6159324,9.9763742],[78.6162757,9.9736268],[78.6162328,9.9701187],[78.6153316,9.9675826],[78.61413,9.9638208],[78.6131,9.9587063],[78.6120271,9.9573114],[78.6094093,9.9571846],[78.6076068,9.9566774],[78.6066198,9.9552825],[78.6055898,9.9549866],[78.6023283,9.9556207],[78.6010408,9.9557475],[78.6015129,9.9549444],[78.6031007,9.9534227],[78.6038732,9.9518164],[78.6037445,9.9501679],[78.6030578,9.9479699],[78.6024999,9.946744],[78.601942,9.9432356],[78.5994958,9.942982],[78.5977792,9.9434469],[78.5964489,9.9434047],[78.595848,9.9429397],[78.593316,9.9444614],[78.5915136,9.9451378],[78.5888099,9.9459409],[78.5856342,9.9471667],[78.5832738,9.9476317],[78.5814285,9.9477163],[78.5779094,9.9485617],[78.5721588,9.9475472],[78.570528,9.9469554],[78.5682106,9.9456027],[78.5660648,9.9464059],[78.5643053,9.9464904],[78.562932,9.945645],[78.5625457,9.9431933],[78.5637474,9.9422634],[78.5654211,9.9418407],[78.5675239,9.9403189],[78.5693693,9.9385012],[78.571043,9.9372754],[78.573575,9.9371486],[78.5762357,9.9361763],[78.5780382,9.9351195],[78.5788536,9.9332596],[78.5794973,9.9312728],[78.5804843,9.9300891],[78.582158,9.9294128],[78.5826301,9.9279332],[78.5837888,9.9249741],[78.5853767,9.9262],[78.5871791,9.9278487],[78.5881233,9.929455],[78.5895395,9.9315264],[78.5910844,9.9323296],[78.5925006,9.9326255],[78.5948181,9.9305964],[78.5958051,9.9289055],[78.5972213,9.9289055],[78.5982513,9.9300469],[78.5988521,9.9311037],[78.5999679,9.9329636],[78.6013841,9.9329636],[78.6017274,9.9319914],[78.6023283,9.9295819],[78.6023283,9.9276373],[78.6018991,9.9263691],[78.6003542,9.9262423],[78.5978221,9.9267919],[78.5969209,9.9266651],[78.5958051,9.9252278],[78.5950326,9.9233255],[78.5947752,9.9219727],[78.5946035,9.9205777],[78.5945606,9.9188868],[78.5950326,9.9168999],[78.5949897,9.9155894],[78.5932302,9.9149553],[78.5917711,9.9142366],[78.5927152,9.9138561],[78.5936594,9.9131797],[78.5946035,9.9114042],[78.5966205,9.9098823],[78.5987663,9.9078531],[78.6001825,9.906458],[78.6023712,9.9048938],[78.6076927,9.9029491],[78.6103963,9.9019345],[78.6114692,9.9002857],[78.6117696,9.8985947],[78.6117696,9.8969882],[78.6112546,9.8956353],[78.6103534,9.8943247],[78.609581,9.8932678],[78.6085939,9.8918304],[78.6084222,9.8906043],[78.6087226,9.8897588],[78.6104393,9.8894205],[78.6118125,9.8892937],[78.6137437,9.888575],[78.6168336,9.8881522],[78.6186361,9.8892092],[78.6215114,9.8906889],[78.623743,9.8914921],[78.6259317,9.8914499],[78.6287212,9.8901393],[78.6298799,9.8883636],[78.629837,9.8868416],[78.6287212,9.8854041],[78.6279916,9.8845163],[78.625803,9.8813454],[78.625803,9.8787664],[78.6267471,9.8774557],[78.6275196,9.8775826],[78.6295366,9.8800348],[78.6300945,9.8818105],[78.6314678,9.8853196],[78.6322403,9.8879408],[78.632884,9.8904352],[78.6346435,9.8928873],[78.6363601,9.8910271],[78.6378622,9.8892092],[78.6386346,9.8884059],[78.63945,9.8896742],[78.6397075,9.8917035],[78.6404371,9.8922954],[78.645544,9.8925491],[78.6476898,9.8926336],[78.6494922,9.8916612],[78.6515951,9.8905198],[78.6533546,9.8895474],[78.6542129,9.889336],[78.6560154,9.8896742],[78.6575603,9.8906043],[78.6584615,9.891323],[78.6603498,9.8922954],[78.6620235,9.8924222],[78.6633968,9.8916612],[78.6648988,9.8909848],[78.6682891,9.8913653],[78.6709499,9.8919149],[78.6736536,9.8923377],[78.6760139,9.8941979],[78.6790609,9.8966922],[78.6812067,9.8989752],[78.6828374,9.9004125],[78.688116,9.9061621],[78.6912489,9.9062043],[78.6942958,9.9063734],[78.6972999,9.9063312],[78.6990594,9.9068808],[78.700819,9.9088254],[78.6272621,10.0166938]]]]}}]}